{
  "type": "FeatureCollection",
  "features": [
    {
      "type": "Feature",
      "properties": {
        "norad_id": 57400,
        "name": "TIANMU-1 08",
        "group": "weather",
        "lat": 66.49336782197543,
        "lon": 30.006752169917817,
        "alt_km": 470.04835221039866,
        "timestamp": "2025-12-23T16:57:11.988462+00:00",
        "meta_object_name": "TIANMU-1 08",
        "meta_object_id": "2023-101B",
        "meta_epoch": "2025-12-23T07:13:48.260064",
        "meta_mean_motion": 15.28196336,
        "meta_eccentricity": 0.00070716,
        "meta_inclination": 97.2846,
        "meta_ra_of_asc_node": 46.7143,
        "meta_arg_of_pericenter": 54.0639,
        "meta_mean_anomaly": 306.1256,
        "meta_ephemeris_type": 0,
        "meta_classification_type": "U",
        "meta_norad_cat_id": 57400,
        "meta_element_set_no": 999,
        "meta_rev_at_epoch": 13476,
        "meta_bstar": 0.00027970366,
        "meta_mean_motion_dot": 7.619e-05,
        "meta_mean_motion_ddot": 0,
        "tle_line1": "1 57400U 23101B   25357.30125301  .00007619  00000+0  27970-3 0  9990",
        "tle_line2": "2 57400  97.2846  46.7143 0007071  54.0639 306.1256 15.28196336134769"
      },
      "geometry": {
        "type": "Point",
        "coordinates": [
          30.006752169917817,
          66.49336782197543
        ]
      }
    },
    {
      "type": "Feature",
      "properties": {
        "norad_id": 57401,
        "name": "TIANMU-1 09",
        "group": "weather",
        "lat": 37.95054031862556,
        "lon": -127.65979045256076,
        "alt_km": 478.2139603728392,
        "timestamp": "2025-12-23T16:57:11.988472+00:00",
        "meta_object_name": "TIANMU-1 09",
        "meta_object_id": "2023-101C",
        "meta_epoch": "2025-12-23T06:54:27.526176",
        "meta_mean_motion": 15.28231168,
        "meta_eccentricity": 0.00063333,
        "meta_inclination": 97.2803,
        "meta_ra_of_asc_node": 46.209,
        "meta_arg_of_pericenter": 55.1233,
        "meta_mean_anomaly": 305.0602,
        "meta_ephemeris_type": 0,
        "meta_classification_type": "U",
        "meta_norad_cat_id": 57401,
        "meta_element_set_no": 999,
        "meta_rev_at_epoch": 13476,
        "meta_bstar": 0.00030748898,
        "meta_mean_motion_dot": 8.392e-05,
        "meta_mean_motion_ddot": 0,
        "tle_line1": "1 57401U 23101C   25357.28781859  .00008392  00000+0  30749-3 0  9991",
        "tle_line2": "2 57401  97.2803  46.2090 0006333  55.1233 305.0602 15.28231168134767"
      },
      "geometry": {
        "type": "Point",
        "coordinates": [
          -127.65979045256076,
          37.95054031862556
        ]
      }
    },
    {
      "type": "Feature",
      "properties": {
        "norad_id": 57402,
        "name": "TIANMU-1 10",
        "group": "weather",
        "lat": -46.568662551099386,
        "lon": 55.24913663026033,
        "alt_km": 488.730556227476,
        "timestamp": "2025-12-23T16:57:11.988487+00:00",
        "meta_object_name": "TIANMU-1 10",
        "meta_object_id": "2023-101D",
        "meta_epoch": "2025-12-23T04:35:13.710624",
        "meta_mean_motion": 15.28221823,
        "meta_eccentricity": 0.00080685,
        "meta_inclination": 97.2883,
        "meta_ra_of_asc_node": 46.9753,
        "meta_arg_of_pericenter": 52.9922,
        "meta_mean_anomaly": 307.2055,
        "meta_ephemeris_type": 0,
        "meta_classification_type": "U",
        "meta_norad_cat_id": 57402,
        "meta_element_set_no": 999,
        "meta_rev_at_epoch": 13474,
        "meta_bstar": 0.00030001879,
        "meta_mean_motion_dot": 8.186e-05,
        "meta_mean_motion_ddot": 0,
        "tle_line1": "1 57402U 23101D   25357.19113091  .00008186  00000+0  30002-3 0  9992",
        "tle_line2": "2 57402  97.2883  46.9753 0008068  52.9922 307.2055 15.28221823134747"
      },
      "geometry": {
        "type": "Point",
        "coordinates": [
          55.24913663026033,
          -46.568662551099386
        ]
      }
    },
    {
      "type": "Feature",
      "properties": {
        "norad_id": 57490,
        "name": "FENGYUN 3F",
        "group": "weather",
        "lat": -80.44502316432411,
        "lon": -179.73479468296563,
        "alt_km": 833.5413505588131,
        "timestamp": "2025-12-23T16:57:11.988498+00:00",
        "meta_object_name": "FENGYUN 3F",
        "meta_object_id": "2023-111A",
        "meta_epoch": "2025-12-23T07:14:52.757664",
        "meta_mean_motion": 14.19896257,
        "meta_eccentricity": 8.069e-05,
        "meta_inclination": 98.7069,
        "meta_ra_of_asc_node": 65.4244,
        "meta_arg_of_pericenter": 115.6617,
        "meta_mean_anomaly": 244.4643,
        "meta_ephemeris_type": 0,
        "meta_classification_type": "U",
        "meta_norad_cat_id": 57490,
        "meta_element_set_no": 999,
        "meta_rev_at_epoch": 12390,
        "meta_bstar": 6.2042386e-05,
        "meta_mean_motion_dot": 8.8e-07,
        "meta_mean_motion_ddot": 0,
        "tle_line1": "1 57490U 23111A   25357.30199951  .00000088  00000+0  62042-4 0  9995",
        "tle_line2": "2 57490  98.7069  65.4244 0000806 115.6617 244.4643 14.19896257123906"
      },
      "geometry": {
        "type": "Point",
        "coordinates": [
          -179.73479468296563,
          -80.44502316432411
        ]
      }
    },
    {
      "type": "Feature",
      "properties": {
        "norad_id": 58584,
        "name": "ARKTIKA-M 2",
        "group": "weather",
        "lat": 35.81834910328932,
        "lon": -27.691726259937546,
        "alt_km": 18372.983810226913,
        "timestamp": "2025-12-23T16:57:11.988510+00:00",
        "meta_object_name": "ARKTIKA-M 2",
        "meta_object_id": "2023-198A",
        "meta_epoch": "2025-12-22T07:11:23.769888",
        "meta_mean_motion": 2.00602601,
        "meta_eccentricity": 0.68656622,
        "meta_inclination": 63.2256,
        "meta_ra_of_asc_node": 173.8511,
        "meta_arg_of_pericenter": 268.066,
        "meta_mean_anomaly": 18.8407,
        "meta_ephemeris_type": 0,
        "meta_classification_type": "U",
        "meta_norad_cat_id": 58584,
        "meta_element_set_no": 999,
        "meta_rev_at_epoch": 1477,
        "meta_bstar": 0,
        "meta_mean_motion_dot": 2.07e-06,
        "meta_mean_motion_ddot": 0,
        "tle_line1": "1 58584U 23198A   25356.29958067  .00000207  00000+0  00000+0 0  9997",
        "tle_line2": "2 58584  63.2256 173.8511 6865662 268.0660  18.8407  2.00602601 14773"
      },
      "geometry": {
        "type": "Point",
        "coordinates": [
          -27.691726259937546,
          35.81834910328932
        ]
      }
    },
    {
      "type": "Feature",
      "properties": {
        "norad_id": 58645,
        "name": "TIANMU-1 11",
        "group": "weather",
        "lat": -5.259434751036441,
        "lon": 17.818430067527313,
        "alt_km": 495.461207842156,
        "timestamp": "2025-12-23T16:57:11.988523+00:00",
        "meta_object_name": "TIANMU-1 11",
        "meta_object_id": "2023-205A",
        "meta_epoch": "2025-12-23T07:31:34.048992",
        "meta_mean_motion": 15.24720806,
        "meta_eccentricity": 0.00075251,
        "meta_inclination": 97.3593,
        "meta_ra_of_asc_node": 16.7508,
        "meta_arg_of_pericenter": 265.1122,
        "meta_mean_anomaly": 94.9257,
        "meta_ephemeris_type": 0,
        "meta_classification_type": "U",
        "meta_norad_cat_id": 58645,
        "meta_element_set_no": 999,
        "meta_rev_at_epoch": 11070,
        "meta_bstar": 0.00024737907,
        "meta_mean_motion_dot": 6.055e-05,
        "meta_mean_motion_ddot": 0,
        "tle_line1": "1 58645U 23205A   25357.31358853  .00006055  00000+0  24738-3 0  9990",
        "tle_line2": "2 58645  97.3593  16.7508 0007525 265.1122  94.9257 15.24720806110701"
      },
      "geometry": {
        "type": "Point",
        "coordinates": [
          17.818430067527313,
          -5.259434751036441
        ]
      }
    },
    {
      "type": "Feature",
      "properties": {
        "norad_id": 58646,
        "name": "TIANMU-1 12",
        "group": "weather",
        "lat": -22.267795092092904,
        "lon": -166.09453972901818,
        "alt_km": 494.28977203176055,
        "timestamp": "2025-12-23T16:57:11.988533+00:00",
        "meta_object_name": "TIANMU-1 12",
        "meta_object_id": "2023-205B",
        "meta_epoch": "2025-12-23T06:37:01.007040",
        "meta_mean_motion": 15.2460607,
        "meta_eccentricity": 0.00059037,
        "meta_inclination": 97.3581,
        "meta_ra_of_asc_node": 16.5156,
        "meta_arg_of_pericenter": 243.2758,
        "meta_mean_anomaly": 116.7876,
        "meta_ephemeris_type": 0,
        "meta_classification_type": "U",
        "meta_norad_cat_id": 58646,
        "meta_element_set_no": 999,
        "meta_rev_at_epoch": 11068,
        "meta_bstar": 0.0002789814,
        "meta_mean_motion_dot": 6.813e-05,
        "meta_mean_motion_ddot": 0,
        "tle_line1": "1 58646U 23205B   25357.27570610  .00006813  00000+0  27898-3 0  9995",
        "tle_line2": "2 58646  97.3581  16.5156 0005903 243.2758 116.7876 15.24606070110689"
      },
      "geometry": {
        "type": "Point",
        "coordinates": [
          -166.09453972901818,
          -22.267795092092904
        ]
      }
    }
  ]
}